start=new Date('2022-06-16T00:00:00.000Z').valueOf();
sats=[{"PERIAPSIS":"545.868","REV_AT_EPOCH":"6122","EPOCH":"2022-06-15T13:30:07.015680","OBJECT_ID":"2021-041BB","FILE":"3496713","ECCENTRICITY":"0.00019700","OBJECT_TYPE":"PAYLOAD","PERIOD":"95.593","DECAY_DATE":null,"BSTAR":"0.00004035900000","LAUNCH_DATE":"2021-05-15","INCLINATION":"53.0558","MEAN_ELEMENT_THEORY":"SGP4","RA_OF_ASC_NODE":"115.9381","CLASSIFICATION_TYPE":"U","REF_FRAME":"TEME","ARG_OF_PERICENTER":"57.6036","OBJECT_NAME":"STARLINK-2713","CENTER_NAME":"EARTH","TLE_LINE2":"2 48602  53.0558 115.9381 0001970  57.6036 302.5144 15.06393999 61224","TIME_SYSTEM":"UTC","SEMIMAJOR_AXIS":"6925.367","EPHEMERIS_TYPE":"0","ELEMENT_SET_NO":"999","GP_ID":"206184003","NORAD_CAT_ID":"48602","SITE":"AFETR","MEAN_MOTION":"15.06393999","APOAPSIS":"548.596","MEAN_MOTION_DOT":"0.00000319","MEAN_MOTION_DDOT":"0.0000000000000","MEAN_ANOMALY":"302.5144","COUNTRY_CODE":"US","RCS_SIZE":"LARGE","TLE_LINE1":"1 48602U 21041BB  22166.56258120  .00000319  00000-0  40359-4 0  9992"},{"PERIAPSIS":"545.920","PERIOD":"95.593","ECCENTRICITY":"0.00018950","OBJECT_TYPE":"PAYLOAD","EPOCH":"2022-06-15T19:22:23.305152","REV_AT_EPOCH":"6133","OBJECT_ID":"2021-041BC","FILE":"3496999","MEAN_ELEMENT_THEORY":"SGP4","INCLINATION":"53.0545","LAUNCH_DATE":"2021-05-15","BSTAR":"0.00001208100000","DECAY_DATE":null,"OBJECT_NAME":"STARLINK-2714","CENTER_NAME":"EARTH","REF_FRAME":"TEME","ARG_OF_PERICENTER":"54.9718","CLASSIFICATION_TYPE":"U","RA_OF_ASC_NODE":"109.8268","EPHEMERIS_TYPE":"0","SEMIMAJOR_AXIS":"6925.368","TIME_SYSTEM":"UTC","TLE_LINE2":"2 48603  53.0545 109.8268 0001895  54.9718 305.1449 15.06393765 61330","NORAD_CAT_ID":"48603","SITE":"AFETR","GP_ID":"206237261","ELEMENT_SET_NO":"999","TLE_LINE1":"1 48603U 21041BC  22166.80721418 -.00000102  00000-0  12081-4 0  9997","RCS_SIZE":"LARGE","MEAN_MOTION_DDOT":"0.0000000000000","COUNTRY_CODE":"US","MEAN_ANOMALY":"305.1449","MEAN_MOTION":"15.06393765","APOAPSIS":"548.545","MEAN_MOTION_DOT":"-0.00000102"},{"PERIAPSIS":"545.729","EPOCH":"2022-06-15T08:16:17.697792","REV_AT_EPOCH":"6084","OBJECT_ID":"2021-041BD","FILE":"3496943","ECCENTRICITY":"0.00021460","OBJECT_TYPE":"PAYLOAD","PERIOD":"95.592","DECAY_DATE":null,"BSTAR":"0.00001401300000","LAUNCH_DATE":"2021-05-15","INCLINATION":"53.0540","MEAN_ELEMENT_THEORY":"SGP4","RA_OF_ASC_NODE":"141.9205","CLASSIFICATION_TYPE":"U","REF_FRAME":"TEME","ARG_OF_PERICENTER":"60.6145","OBJECT_NAME":"STARLINK-2757","CENTER_NAME":"EARTH","TIME_SYSTEM":"UTC","TLE_LINE2":"2 48604  53.0540 141.9205 0002146  60.6145 299.5058 15.06399390 60849","SEMIMAJOR_AXIS":"6925.350","EPHEMERIS_TYPE":"0","ELEMENT_SET_NO":"999","GP_ID":"206214397","SITE":"AFETR","NORAD_CAT_ID":"48604","MEAN_MOTION":"15.06399390","APOAPSIS":"548.702","MEAN_MOTION_DOT":"-0.00000073","MEAN_MOTION_DDOT":"0.0000000000000","MEAN_ANOMALY":"299.5058","COUNTRY_CODE":"US","RCS_SIZE":"LARGE","TLE_LINE1":"1 48604U 21041BD  22166.34464928 -.00000073  00000-0  14013-4 0  9991"},{"OBJECT_NAME":"STARLINK-2758","CENTER_NAME":"EARTH","REF_FRAME":"TEME","ARG_OF_PERICENTER":"61.3420","CLASSIFICATION_TYPE":"U","RA_OF_ASC_NODE":"114.7549","MEAN_ELEMENT_THEORY":"SGP4","INCLINATION":"53.0540","BSTAR":"0.00002159700000","LAUNCH_DATE":"2021-05-26","DECAY_DATE":null,"PERIOD":"95.592","ECCENTRICITY":"0.00015920","OBJECT_TYPE":"PAYLOAD","EPOCH":"2022-06-15T19:50:54.467520","REV_AT_EPOCH":"5836","OBJECT_ID":"2021-044A","FILE":"3496999","PERIAPSIS":"546.114","TLE_LINE1":"1 48638U 21044A   22166.82701930  .00000040  00000-0  21597-4 0  9999","RCS_SIZE":"LARGE","MEAN_MOTION_DDOT":"0.0000000000000","COUNTRY_CODE":"US","MEAN_ANOMALY":"298.7729","MEAN_MOTION":"15.06398969","APOAPSIS":"548.319","MEAN_MOTION_DOT":"0.00000040","NORAD_CAT_ID":"48638","SITE":"AFETR","GP_ID":"206236514","ELEMENT_SET_NO":"999","EPHEMERIS_TYPE":"0","SEMIMAJOR_AXIS":"6925.352","TLE_LINE2":"2 48638  53.0540 114.7549 0001592  61.3420 298.7729 15.06398969 58364","TIME_SYSTEM":"UTC"},{"ELEMENT_SET_NO":"999","GP_ID":"206237765","NORAD_CAT_ID":"48639","SITE":"AFETR","TLE_LINE2":"2 48639  53.0547 114.8231 0002117  56.0396 304.0794 15.06398915 58362","TIME_SYSTEM":"UTC","SEMIMAJOR_AXIS":"6925.352","EPHEMERIS_TYPE":"0","MEAN_MOTION":"15.06398915","MEAN_MOTION_DOT":"-0.00000399","APOAPSIS":"548.683","MEAN_MOTION_DDOT":"0.0000000000000","MEAN_ANOMALY":"304.0794","COUNTRY_CODE":"US","RCS_SIZE":"LARGE","TLE_LINE1":"1 48639U 21044B   22166.81227558 -.00000399  00000-0 -78987-5 0  9993","REV_AT_EPOCH":"5836","EPOCH":"2022-06-15T19:29:40.610112","FILE":"3496999","OBJECT_ID":"2021-044B","ECCENTRICITY":"0.00021170","OBJECT_TYPE":"PAYLOAD","PERIOD":"95.592","PERIAPSIS":"545.751","RA_OF_ASC_NODE":"114.8231","CLASSIFICATION_TYPE":"U","REF_FRAME":"TEME","ARG_OF_PERICENTER":"56.0396","OBJECT_NAME":"STARLINK-2739","CENTER_NAME":"EARTH","DECAY_DATE":null,"BSTAR":"-0.00000789870000","LAUNCH_DATE":"2021-05-26","INCLINATION":"53.0547","MEAN_ELEMENT_THEORY":"SGP4"},{"CLASSIFICATION_TYPE":"U","RA_OF_ASC_NODE":"115.1232","OBJECT_NAME":"STARLINK-2736","CENTER_NAME":"EARTH","REF_FRAME":"TEME","ARG_OF_PERICENTER":"48.1777","LAUNCH_DATE":"2021-05-26","BSTAR":"0.00007636800000","DECAY_DATE":null,"MEAN_ELEMENT_THEORY":"SGP4","INCLINATION":"53.0550","ECCENTRICITY":"0.00012240","OBJECT_TYPE":"PAYLOAD","REV_AT_EPOCH":"5835","EPOCH":"2022-06-15T19:20:28.352544","FILE":"3496999","OBJECT_ID":"2021-044C","PERIOD":"95.592","PERIAPSIS":"546.351","MEAN_MOTION_DDOT":"0.0000000000000","MEAN_ANOMALY":"311.9316","COUNTRY_CODE":"US","MEAN_MOTION":"15.06404772","APOAPSIS":"548.047","MEAN_MOTION_DOT":"0.00000856","TLE_LINE1":"1 48640U 21044C   22166.80588371  .00000856  00000-0  76368-4 0  9993","RCS_SIZE":"LARGE","GP_ID":"206238016","ELEMENT_SET_NO":"999","NORAD_CAT_ID":"48640","SITE":"AFETR","TIME_SYSTEM":"UTC","TLE_LINE2":"2 48640  53.0550 115.1232 0001224  48.1777 311.9316 15.06404772 58351","EPHEMERIS_TYPE":"0","SEMIMAJOR_AXIS":"6925.334"},{"MEAN_MOTION_DDOT":"0.0000000000000","MEAN_ANOMALY":"296.8931","COUNTRY_CODE":"US","MEAN_MOTION":"15.06403254","APOAPSIS":"548.633","MEAN_MOTION_DOT":"0.00000198","TLE_LINE1":"1 48641U 21044D   22166.35385979  .00000198  00000-0  32178-4 0  9993","RCS_SIZE":"LARGE","TLE_LINE2":"2 48641  53.0540 121.8776 0002064  63.2269 296.8931 15.06403254 58229","TIME_SYSTEM":"UTC","EPHEMERIS_TYPE":"0","SEMIMAJOR_AXIS":"6925.339","GP_ID":"206206579","ELEMENT_SET_NO":"999","NORAD_CAT_ID":"48641","SITE":"AFETR","BSTAR":"0.00003217800000","LAUNCH_DATE":"2021-05-26","DECAY_DATE":null,"MEAN_ELEMENT_THEORY":"SGP4","INCLINATION":"53.0540","CLASSIFICATION_TYPE":"U","RA_OF_ASC_NODE":"121.8776","OBJECT_NAME":"STARLINK-2754","CENTER_NAME":"EARTH","REF_FRAME":"TEME","ARG_OF_PERICENTER":"63.2269","PERIAPSIS":"545.774","OBJECT_TYPE":"PAYLOAD","ECCENTRICITY":"0.00020640","REV_AT_EPOCH":"5822","EPOCH":"2022-06-15T08:29:33.485856","OBJECT_ID":"2021-044D","FILE":"3496794","PERIOD":"95.592"},{"PERIAPSIS":"546.021","REV_AT_EPOCH":"5825","EPOCH":"2022-06-15T13:36:03.121920","OBJECT_ID":"2021-044E","FILE":"3496794","ECCENTRICITY":"0.00017310","OBJECT_TYPE":"PAYLOAD","PERIOD":"95.592","DECAY_DATE":null,"BSTAR":"-0.00005547200000","LAUNCH_DATE":"2021-05-26","INCLINATION":"53.0540","MEAN_ELEMENT_THEORY":"SGP4","RA_OF_ASC_NODE":"120.9182","CLASSIFICATION_TYPE":"U","REF_FRAME":"TEME","ARG_OF_PERICENTER":"65.9783","OBJECT_NAME":"STARLINK-2646","CENTER_NAME":"EARTH","TIME_SYSTEM":"UTC","TLE_LINE2":"2 48642  53.0540 120.9182 0001731  65.9783 294.1387 15.06397875 58251","SEMIMAJOR_AXIS":"6925.355","EPHEMERIS_TYPE":"0","ELEMENT_SET_NO":"999","GP_ID":"206207827","NORAD_CAT_ID":"48642","SITE":"AFETR","MEAN_MOTION":"15.06397875","APOAPSIS":"548.419","MEAN_MOTION_DOT":"-0.00001108","MEAN_MOTION_DDOT":"0.0000000000000","MEAN_ANOMALY":"294.1387","COUNTRY_CODE":"US","RCS_SIZE":"LARGE","TLE_LINE1":"1 48642U 21044E   22166.56670280 -.00001108  00000-0 -55472-4 0  9995"},{"TLE_LINE1":"1 48643U 21044F   22166.68151452  .00041381  00000-0  27549-2 0  9991","RCS_SIZE":"LARGE","MEAN_ANOMALY":"353.9055","COUNTRY_CODE":"US","MEAN_MOTION_DDOT":"0.0000000000000","MEAN_MOTION_DOT":"0.00041381","APOAPSIS":"548.455","MEAN_MOTION":"15.06743002","NORAD_CAT_ID":"48643","SITE":"AFETR","GP_ID":"206237266","ELEMENT_SET_NO":"999","EPHEMERIS_TYPE":"0","SEMIMAJOR_AXIS":"6924.298","TIME_SYSTEM":"UTC","TLE_LINE2":"2 48643  53.0562 120.4015 0003311   6.1975 353.9055 15.06743002 58277","CENTER_NAME":"EARTH","OBJECT_NAME":"STARLINK-2704","ARG_OF_PERICENTER":"6.1975","REF_FRAME":"TEME","CLASSIFICATION_TYPE":"U","RA_OF_ASC_NODE":"120.4015","MEAN_ELEMENT_THEORY":"SGP4","INCLINATION":"53.0562","LAUNCH_DATE":"2021-05-26","BSTAR":"0.00275490000000","DECAY_DATE":null,"PERIOD":"95.570","OBJECT_TYPE":"PAYLOAD","ECCENTRICITY":"0.00033110","OBJECT_ID":"2021-044F","FILE":"3496999","EPOCH":"2022-06-15T16:21:22.854528","REV_AT_EPOCH":"5827","PERIAPSIS":"543.870"},{"PERIOD":"95.592","FILE":"3496999","OBJECT_ID":"2021-044G","REV_AT_EPOCH":"5826","EPOCH":"2022-06-15T14:41:06.131328","ECCENTRICITY":"0.00020610","OBJECT_TYPE":"PAYLOAD","PERIAPSIS":"545.778","ARG_OF_PERICENTER":"63.9297","REF_FRAME":"TEME","CENTER_NAME":"EARTH","OBJECT_NAME":"STARLINK-2695","RA_OF_ASC_NODE":"120.7240","CLASSIFICATION_TYPE":"U","INCLINATION":"53.0545","MEAN_ELEMENT_THEORY":"SGP4","DECAY_DATE":null,"BSTAR":"0.00005519000000","LAUNCH_DATE":"2021-05-26","NORAD_CAT_ID":"48644","SITE":"AFETR","ELEMENT_SET_NO":"999","GP_ID":"206237517","SEMIMAJOR_AXIS":"6925.340","EPHEMERIS_TYPE":"0","TIME_SYSTEM":"UTC","TLE_LINE2":"2 48644  53.0545 120.7240 0002061  63.9297 296.1904 15.06402839 58261","RCS_SIZE":"LARGE","TLE_LINE1":"1 48644U 21044G   22166.61187652  .00000540  00000-0  55190-4 0  9993","APOAPSIS":"548.632","MEAN_MOTION_DOT":"0.00000540","MEAN_MOTION":"15.06402839","MEAN_ANOMALY":"296.1904","COUNTRY_CODE":"US","MEAN_MOTION_DDOT":"0.0000000000000"}];
